[{"OBJECT_NAME":"STARLINK-35752","OBJECT_ID":"2025-247L","EPOCH":"2026-03-09T15:12:29.618496","MEAN_MOTION":15.30193397,"ECCENTRICITY":0.000129,"INCLINATION":53.1577,"RA_OF_ASC_NODE":191.8054,"ARG_OF_PERICENTER":62.6386,"MEAN_ANOMALY":297.4746,"EPHEMERIS_TYPE":0,"CLASSIFICATION_TYPE":"U","NORAD_CAT_ID":66275,"ELEMENT_SET_NO":999,"REV_AT_EPOCH":2102,"BSTAR":0.0012356,"MEAN_MOTION_DOT":0.00036408,"MEAN_MOTION_DDOT":0},{"OBJECT_NAME":"FENGYUN 1C DEB","OBJECT_ID":"1999-025BZU","EPOCH":"2026-03-09T17:19:51.665664","MEAN_MOTION":15.28412118,"ECCENTRICITY":0.00188802,"INCLINATION":98.9598,"RA_OF_ASC_NODE":354.2029,"ARG_OF_PERICENTER":82.3682,"MEAN_ANOMALY":277.9697,"EPHEMERIS_TYPE":0,"CLASSIFICATION_TYPE":"U","NORAD_CAT_ID":31614,"ELEMENT_SET_NO":999,"REV_AT_EPOCH":97742,"BSTAR":0.011500831,"MEAN_MOTION_DOT":0.0033373,"MEAN_MOTION_DDOT":0}]
